NORAD_CAT_ID,OBJECT_NAME,OBJECT_TYPE,EPOCH,MEAN_MOTION,ECCENTRICITY,INCLINATION,RA_OF_ASC_NODE,ARG_OF_PERICENTER,MEAN_ANOMALY,BSTAR,MEAN_MOTION_DOT,MEAN_MOTION_DDOT,TLE_LINE0,TLE_LINE1,TLE_LINE2,SEMIMAJOR_AXIS,PERIOD,APOGEE,PERIGEE,DECAYED
52999.0,STARLINK-4217,PAYLOAD,2022-10-13 06:00:00,15.08828245,0.0001635,53.2163,276.1277,62.6569,122.0943,0.002236,0.00035466,0.0,0 STARLINK-4217,1 52999U 22076P   22286.25001157  .00035466  00000-0  22360-2 0  9991,2 52999  53.2163 276.1277 0001635  62.6569 122.0943 15.08828245 15603,6917.916,95.438,540.9119999999998,538.65,0.0
52999.0,STARLINK-4217,PAYLOAD,2022-10-13 14:00:01,15.08894473,0.0001514,53.2166,274.6336,65.3291,131.0077,-0.005023,-0.00079466,0.0,0 STARLINK-4217,1 52999U 22076P   22286.58334491 -.00079466  00000-0 -50230-2 0  9994,2 52999  53.2166 274.6336 0001514  65.3291 131.0077 15.08894473  1309,6917.714,95.434,540.626,538.5319999999998,0.0
52999.0,STARLINK-4217,PAYLOAD,2022-10-13 20:00:01,15.08835869,0.000138,53.2173,273.5119,71.3622,43.7669,7.6142e-05,9.24e-06,0.0,0 STARLINK-4217,1 52999U 22076P   22286.83335648  .00000924  00000-0  76142-4 0  9990,2 52999  53.2173 273.5119 0001380  71.3622  43.7669 15.08835869 15697,6917.893,95.438,540.7130000000002,538.803,0.0
52999.0,STARLINK-4217,PAYLOAD,2022-10-13 22:00:00,15.08837528,0.0001399,53.2174,273.1379,73.2844,134.679,-0.00011248,-2.077e-05,0.0,0 STARLINK-4217,1 52999U 22076P   22286.91667824 -.00002077  00000-0 -11248-3 0  9991,2 52999  53.2174 273.1379 0001399  73.2844 134.6790 15.08837528  1301,6917.888000000001,95.438,540.721,538.785,0.0
52999.0,STARLINK-4217,PAYLOAD,2022-10-14 14:00:01,15.08857999,0.0001453999999999,53.2167,270.1447,69.1557,161.9818,-0.0020689,-0.0003308,0.0,0 STARLINK-4217,1 52999U 22076P   22287.58334491 -.00033080  00000-0 -20689-2 0  9992,2 52999  53.2167 270.1447 0001454  69.1557 161.9818 15.08857999  1301,6917.825,95.436,540.696,538.685,0.0
52999.0,STARLINK-4217,PAYLOAD,2022-10-14 20:00:01,15.08837268,0.0001421,53.2173,269.0228,77.0457,72.7966,-9.4679e-05,-1.794e-05,0.0,0 STARLINK-4217,1 52999U 22076P   22287.83334491 -.00001794  00000-0 -94679-4 0  9999,2 52999  53.2173 269.0228 0001421  77.0457  72.7966 15.08837268  1303,6917.889,95.438,540.737,538.771,0.0
52999.0,STARLINK-4217,PAYLOAD,2022-10-15 06:00:00,15.0883618,0.0001493,53.2174,267.1541,72.6867,181.6451,6.3782e-05,7.27e-06,0.0,0 STARLINK-4217,1 52999U 22076P   22288.25001157  .00000727  00000-0  63782-4 0  9990,2 52999  53.2174 267.1541 0001493  72.6867 181.6451 15.08836180 15908,6917.892,95.438,540.79,538.724,0.0
52999.0,STARLINK-4217,PAYLOAD,2022-10-15 14:00:01,15.08847027,0.0001484,53.2147,265.6488,59.7764,206.1663,-0.0015647,-0.00025109,0.0,0 STARLINK-4217,1 52999U 22076P   22288.58334491 -.00025109  00000-0 -15647-2 0  9994,2 52999  53.2147 265.6488 0001484  59.7764 206.1663 15.08847027  1302,6917.859,95.437,540.751,538.697,0.0
52999.0,STARLINK-4217,PAYLOAD,2022-10-15 22:00:01,15.0882242,0.0001415,53.2149,264.1513,66.6368,210.9601,0.00067032,0.00010391,0.0,0 STARLINK-4217,1 52999U 22076P   22288.91668981  .00010391  00000-0  67032-3 0  9996,2 52999  53.2149 264.1513 0001415  66.6368 210.9601 15.08822420  1303,6917.934,95.439,540.778,538.82,0.0
52999.0,STARLINK-4217,PAYLOAD,2022-10-16 14:00:01,15.08830897,0.0001361999999999,53.215,261.1597,55.4422,245.246,-0.0017144,-0.00027462,0.0,0 STARLINK-4217,1 52999U 22076P   22289.58334491 -.00027462  00000-0 -17144-2 0  9993,2 52999  53.2150 261.1597 0001362  55.4422 245.2460 15.08830897 16107,6917.908,95.438,540.715,538.831,0.0
52999.0,STARLINK-4217,PAYLOAD,2022-10-16 22:00:00,15.08817596,0.0001333,53.2154,259.6632,64.9902,247.2689,0.0025396,0.00040336,0.0,0 STARLINK-4217,1 52999U 22076P   22289.91667824  .00040336  00000-0  25396-2 0  9990,2 52999  53.2154 259.6632 0001333  64.9902 247.2689 15.08817596  1301,6917.949000000001,95.439,540.736,538.8919999999998,0.0
52999.0,STARLINK-4217,PAYLOAD,2022-10-17 06:00:00,15.08827433,0.0001538,53.2155,258.1694,55.9744,267.8668,0.0015918,0.00025128,0.0,0 STARLINK-4217,1 52999U 22076P   22290.25001157  .00025128  00000-0  15918-2 0  9991,2 52999  53.2155 258.1694 0001538  55.9744 267.8668 15.08827433 16206,6917.919,95.438,540.8480000000002,538.72,0.0
52999.0,STARLINK-4217,PAYLOAD,2022-10-17 14:00:01,15.08879247,0.0001471,53.2156,256.6717,58.1623,277.2759,-0.0045445,-0.00071968,0.0,0 STARLINK-4217,1 52999U 22076P   22290.58334491 -.00071968  00000-0 -45445-2 0  9990,2 52999  53.2156 256.6717 0001471  58.1623 277.2759 15.08879247  1304,6917.76,95.435,540.643,538.6080000000002,0.0
52999.0,STARLINK-4217,PAYLOAD,2022-10-17 22:00:00,15.08846683,0.0001452,53.2156,255.1742,67.9291,279.1195,0.00055165,8.504e-05,0.0,0 STARLINK-4217,1 52999U 22076P   22290.91667824  .00008504  00000-0  55165-3 0  9991,2 52999  53.2156 255.1742 0001452  67.9291 279.1195 15.08846683  1307,6917.86,95.437,540.729,538.72,0.0
52999.0,STARLINK-4217,PAYLOAD,2022-10-18 08:00:01,15.08735088,0.0001478,53.2154,253.305,52.7192,38.7523,0.010022,0.00162447,0.0,0 STARLINK-4217,1 52999U 22076P   22291.33334491  .00162447  00000-0  10022-1 0  9997,2 52999  53.2154 253.3050 0001478  52.7192  38.7523 15.08735088 16370,6918.201,95.444,541.089,539.044,0.0
52999.0,STARLINK-4217,PAYLOAD,2022-10-18 14:00:01,15.08850774,0.0001484,53.2153,252.1814,59.29,310.8181,-0.0010452,-0.00016889,0.0,0 STARLINK-4217,1 52999U 22076P   22291.58334491 -.00016889  00000-0 -10452-2 0  9992,2 52999  53.2153 252.1814 0001484  59.2900 310.8181 15.08850774  1301,6917.847,95.437,540.739,538.686,0.0
52999.0,STARLINK-4217,PAYLOAD,2022-10-18 22:00:00,15.08865705,0.0001538,53.2156,250.6844,71.2063,310.5254,-0.00078805,-0.00012817,0.0,0 STARLINK-4217,1 52999U 22076P   22291.91667824 -.00012817  00000-0 -78805-3 0  9992,2 52999  53.2156 250.6844 0001538  71.2063 310.5254 15.08865705  1302,6917.802,95.436,540.731,538.6030000000002,0.0
52999.0,STARLINK-4217,PAYLOAD,2022-10-19 14:00:01,15.08875094,0.0001608,53.2152,247.6919,68.3524,336.6172,-0.00086929,-0.0001411,0.0,0 STARLINK-4217,1 52999U 22076P   22292.58334491 -.00014110  00000-0 -86929-3 0  9991,2 52999  53.2152 247.6919 0001608  68.3524 336.6172 15.08875094  1304,6917.773,95.435,540.751,538.526,0.0
52999.0,STARLINK-4217,PAYLOAD,2022-10-19 22:00:00,15.08881098,0.000154,53.2165,246.1986,70.02,346.56,-0.0021991,-0.00035156,0.0,0 STARLINK-4217,1 52999U 22076P   22292.91667824 -.00035156  00000-0 -21991-2 0  9997,2 52999  53.2165 246.1986 0001540  70.0200 346.5600 15.08881098 16608,6917.755,95.435,540.685,538.554,0.0
52999.0,STARLINK-4217,PAYLOAD,2022-10-20 14:00:01,15.08859965,0.0001527,53.2156,243.2035,70.5711,9.2676,-0.0037306999999999,-0.00059207,0.0,0 STARLINK-4217,1 52999U 22076P   22293.58334491 -.00059207  00000-0 -37307-2 0  9993,2 52999  53.2156 243.2035 0001527  70.5711   9.2676 15.08859965  1303,6917.819,95.436,540.741,538.628,0.0
52999.0,STARLINK-4217,PAYLOAD,2022-10-20 22:00:00,15.08837364,0.0001491,53.2154,241.7068,75.7311,15.7028,0.00048593,7.454e-05,0.0,0 STARLINK-4217,1 52999U 22076P   22293.91667824  .00007454  00000-0  48593-3 0  9994,2 52999  53.2154 241.7068 0001491  75.7311  15.7028 15.08837364 16761,6917.888000000001,95.438,540.785,538.722,0.0
52999.0,STARLINK-4217,PAYLOAD,2022-10-21 06:00:00,15.08816262,0.0001573,53.2153,240.2128,65.2343,37.7734,0.0015234,0.00024024,0.0,0 STARLINK-4217,1 52999U 22076P   22294.25001157  .00024024  00000-0  15234-2 0  9990,2 52999  53.2153 240.2128 0001573  65.2343  37.7734 15.08816262 16819,6917.953,95.439,540.906,538.73,0.0
52999.0,STARLINK-4217,PAYLOAD,2022-10-21 14:00:01,15.08833965,0.0001393,53.2154,238.7143,71.2221,43.3908,-0.0012212,-0.00019667,0.0,0 STARLINK-4217,1 52999U 22076P   22294.58334491 -.00019667  00000-0 -12212-2 0  9998,2 52999  53.2154 238.7143 0001393  71.2221  43.3908 15.08833965  1304,6917.899,95.438,540.727,538.8,0.0
52999.0,STARLINK-4217,PAYLOAD,2022-10-21 22:00:00,15.08838224,0.0001409,53.2149,237.2166,74.3811,51.8032,-7.2029e-05,-1.434e-05,0.0,0 STARLINK-4217,1 52999U 22076P   22294.91667824 -.00001434  00000-0 -72029-4 0  9991,2 52999  53.2149 237.2166 0001409  74.3811  51.8032 15.08838224  1309,6917.886,95.438,540.726,538.776,0.0
52999.0,STARLINK-4217,PAYLOAD,2022-10-22 08:00:01,15.08838548,0.0001520999999999,53.2145,235.3476,65.2689,165.4047,-0.0003306,-5.545e-05,0.0,0 STARLINK-4217,1 52999U 22076P   22295.33334491 -.00005545  00000-0 -33060-3 0  9997,2 52999  53.2145 235.3476 0001521  65.2689 165.4047 15.08838548 16971,6917.885,95.438,540.802,538.698,0.0
52999.0,STARLINK-4217,PAYLOAD,2022-10-22 14:00:01,15.08814003,0.0001554999999999,53.2148,234.2237,72.9801,76.3918,-0.00039848,-6.620000000000001e-05,0.0,0 STARLINK-4217,1 52999U 22076P   22295.58334491 -.00006620  00000-0 -39848-3 0  9999,2 52999  53.2148 234.2237 0001555  72.9801  76.3918 15.08814003  1303,6917.96,95.439,540.901,538.749,0.0
52999.0,STARLINK-4217,PAYLOAD,2022-10-22 22:00:00,15.08834897,0.0001666999999999,53.215,232.7274,76.2743,84.6576,0.00022022,3.218e-05,0.0,0 STARLINK-4217,1 52999U 22076P   22295.91667824  .00003218  00000-0  22022-3 0  9999,2 52999  53.2150 232.7274 0001667  76.2743  84.6576 15.08834897  1301,6917.896,95.438,540.914,538.6080000000002,0.0
52999.0,STARLINK-4217,PAYLOAD,2022-10-23 08:00:01,15.08842478,0.0001691,53.2149,230.8582,67.7413,197.752,0.0030313,0.00048289,0.0,0 STARLINK-4217,1 52999U 22076P   22296.33335648  .00048289  00000-0  30313-2 0  9990,2 52999  53.2149 230.8582 0001691  67.7413 197.7520 15.08842478 17122,6917.873000000001,95.437,540.908,538.568,0.0
52999.0,STARLINK-4217,PAYLOAD,2022-10-23 14:00:01,15.08853236,0.0001614,53.2153,229.7343,72.9145,111.223,0.0013022,0.00020505,0.0,0 STARLINK-4217,1 52999U 22076P   22296.58334491  .00020505  00000-0  13022-2 0  9991,2 52999  53.2153 229.7343 0001614  72.9145 111.2230 15.08853236  1300,6917.84,95.437,540.821,538.5880000000002,0.0
